GLOBALSTAR M057         
1 25943U 99058A   25333.12157398 -.00000056  00000+0  33298-3 0  9995
2 25943  51.9980 240.1186 0002922   6.5313 353.5574 12.24829623187144
GLOBALSTAR M059         
1 25944U 99058B   25333.12714727 -.00000062  00000+0  30145-3 0  9996
2 25944  51.9994 120.9514 0000817 104.1278  67.3284 11.99987923593841
GLOBALSTAR M056         
1 25945U 99058C   25333.13345627 -.00000102  00000+0 -17463-3 0  9991
2 25945  51.9943 118.6660 0001815 127.6324  43.9953 12.04782029182500
GLOBALSTAR M031         
1 25946U 99058D   25333.03985472 -.00000029  00000+0  62409-3 0  9996
2 25946  51.9988   1.3782 0001547 150.9796 226.2766 12.16044562184604
GLOBALSTAR M039         
1 25961U 99062A   25332.85912073 -.00000054  00000+0  27670-3 0  9993
2 25961  51.9816 127.1507 0002455  17.5589 342.5362 12.62338233201011
GLOBALSTAR M034         
1 25962U 99062B   25333.19559218 -.00000056  00000+0  39687-3 0  9993
2 25962  51.9890 302.4594 0014614 354.6071  18.9213 11.79452475157863
GLOBALSTAR M029         
1 25963U 99062C   25333.02542036 -.00000067  00000+0  23957-3 0  9991
2 25963  51.9826   9.1229 0002647  86.8547 276.2521 11.99903207188911
GLOBALSTAR M061         
1 25964U 99062D   25333.18742516 -.00000050  00000+0  49350-3 0  9991
2 25964  51.9762 128.7036 0004777 273.1931 257.9691 11.76778344140604
